[
    {
        "Altitude(m)": 569308.8167799371,
        "Argument of Periapsis(deg)": 0.0,
        "Eccentricity": 0.0,
        "Inclination(deg)": 53.0,
        "Latitude(deg)": -46.77333848911136,
        "Longitude(deg)": 172.15506615455197,
        "Mean Anomaly(deg)": -65.45449999999998,
        "RAAN(deg)": 325.0,
        "Satellite Name": "Starlink Shell 1 1448",
        "Satellite Number": 1448,
        "Semi-Major Axis(m)": 6931778.249405717,
        "Time(s)": 0
    },
    {
        "Altitude(m)": 569184.7080039193,
        "Argument of Periapsis(deg)": 0.00034857847951123687,
        "Eccentricity": 0.0,
        "Inclination(deg)": 53.0,
        "Latitude(deg)": -46.468951375657795,
        "Longitude(deg)": 172.90678817046745,
        "Mean Anomaly(deg)": -64.82766879644329,
        "RAAN(deg)": 324.9994812299225,
        "Satellite Name": "Starlink Shell 1 1448",
        "Satellite Number": 1448,
        "Semi-Major Axis(m)": 6931778.249405717,
        "Time(s)": 10
    },
    {
        "Altitude(m)": 569058.1741721617,
        "Argument of Periapsis(deg)": 0.0006971569590224737,
        "Eccentricity": 0.0,
        "Inclination(deg)": 53.0,
        "Latitude(deg)": -46.159107218143205,
        "Longitude(deg)": 173.64966040330154,
        "Mean Anomaly(deg)": -64.20083759288659,
        "RAAN(deg)": 324.9989624598451,
        "Satellite Name": "Starlink Shell 1 1448",
        "Satellite Number": 1448,
        "Semi-Major Axis(m)": 6931778.249405717,
        "Time(s)": 20
    },
    {
        "Altitude(m)": 568929.2652551463,
        "Argument of Periapsis(deg)": 0.0010457354385337105,
        "Eccentricity": 0.0,
        "Inclination(deg)": 53.0,
        "Latitude(deg)": -45.8439233614232,
        "Longitude(deg)": 174.38372441543183,
        "Mean Anomaly(deg)": -63.574006389329895,
        "RAAN(deg)": 324.99844368976756,
        "Satellite Name": "Starlink Shell 1 1448",
        "Satellite Number": 1448,
        "Semi-Major Axis(m)": 6931778.249405717,
        "Time(s)": 30
    },
    {
        "Altitude(m)": 568798.0321315954,
        "Argument of Periapsis(deg)": 0.0013943139180449475,
        "Eccentricity": 0.0,
        "Inclination(deg)": 53.0,
        "Latitude(deg)": -45.52351587848006,
        "Longitude(deg)": 175.10903011792055,
        "Mean Anomaly(deg)": -62.94717518577305,
        "RAAN(deg)": 324.99792491969004,
        "Satellite Name": "Starlink Shell 1 1448",
        "Satellite Number": 1448,
        "Semi-Major Axis(m)": 6931778.249405717,
        "Time(s)": 40
    },
    {
        "Altitude(m)": 568664.5265661606,
        "Argument of Periapsis(deg)": 0.0017428923975561844,
        "Eccentricity": 0.0,
        "Inclination(deg)": 53.0,
        "Latitude(deg)": -45.19799948135359,
        "Longitude(deg)": 175.8256342431277,
        "Mean Anomaly(deg)": -62.3203439822164,
        "RAAN(deg)": 324.99740614961263,
        "Satellite Name": "Starlink Shell 1 1448",
        "Satellite Number": 1448,
        "Semi-Major Axis(m)": 6931778.249405717,
        "Time(s)": 50
    },
    {
        "Altitude(m)": 568528.8011867327,
        "Argument of Periapsis(deg)": 0.002091470877067421,
        "Eccentricity": 0.0,
        "Inclination(deg)": 53.0,
        "Latitude(deg)": -44.86748744121856,
        "Longitude(deg)": 176.5336003424046,
        "Mean Anomaly(deg)": -61.69351277865971,
        "RAAN(deg)": 324.99688737953517,
        "Satellite Name": "Starlink Shell 1 1448",
        "Satellite Number": 1448,
        "Semi-Major Axis(m)": 6931778.249405717,
        "Time(s)": 60
    },
    {
        "Altitude(m)": 568390.9094612869,
        "Argument of Periapsis(deg)": 0.0024400493565786582,
        "Eccentricity": 0.0,
        "Inclination(deg)": 53.0,
        "Latitude(deg)": -44.53209151722516,
        "Longitude(deg)": 177.23299879745838,
        "Mean Anomaly(deg)": -61.06668157510296,
        "RAAN(deg)": 324.99636860945765,
        "Satellite Name": "Starlink Shell 1 1448",
        "Satellite Number": 1448,
        "Semi-Major Axis(m)": 6931778.249405717,
        "Time(s)": 70
    },
    {
        "Altitude(m)": 568250.9056744281,
        "Argument of Periapsis(deg)": 0.002788627836089895,
        "Eccentricity": 0.0,
        "Inclination(deg)": 53.0,
        "Latitude(deg)": -44.19192189369907,
        "Longitude(deg)": 177.92390533375013,
        "Mean Anomaly(deg)": -60.439850371546214,
        "RAAN(deg)": 324.99584983938024,
        "Satellite Name": "Starlink Shell 1 1448",
        "Satellite Number": 1448,
        "Semi-Major Axis(m)": 6931778.249405717,
        "Time(s)": 80
    },
    {
        "Altitude(m)": 568108.8449035138,
        "Argument of Periapsis(deg)": 0.0031372063156011316,
        "Eccentricity": 0.0,
        "Inclination(deg)": 53.0,
        "Latitude(deg)": -43.84708712529846,
        "Longitude(deg)": 178.606401062686,
        "Mean Anomaly(deg)": -59.813019167989566,
        "RAAN(deg)": 324.9953310693027,
        "Satellite Name": "Starlink Shell 1 1448",
        "Satellite Number": 1448,
        "Semi-Major Axis(m)": 6931778.249405717,
        "Time(s)": 90
    },
    {
        "Altitude(m)": 567964.7829944177,
        "Argument of Periapsis(deg)": 0.0034857847951123688,
        "Eccentricity": 0.0,
        "Inclination(deg)": 53.0,
        "Latitude(deg)": -43.49769408971145,
        "Longitude(deg)": 179.28057254053897,
        "Mean Anomaly(deg)": -59.186187964432875,
        "RAAN(deg)": 324.99481229922526,
        "Satellite Name": "Starlink Shell 1 1448",
        "Satellite Number": 1448,
        "Semi-Major Axis(m)": 6931778.249405717,
        "Time(s)": 100
    },
    {
        "Altitude(m)": 567818.776536963,
        "Argument of Periapsis(deg)": 0.003834363274623606,
        "Eccentricity": 0.0,
        "Inclination(deg)": 53.0,
        "Latitude(deg)": -43.143847947473894,
        "Longitude(deg)": 179.94651033185093,
        "Mean Anomaly(deg)": -58.55935676087613,
        "RAAN(deg)": 324.9942935291478,
        "Satellite Name": "Starlink Shell 1 1448",
        "Satellite Number": 1448,
        "Semi-Major Axis(m)": 6931778.249405717,
        "Time(s)": 110
    },
    {
        "Altitude(m)": 567670.8828399691,
        "Argument of Periapsis(deg)": 0.004182941754134842,
        "Eccentricity": 0.0,
        "Inclination(deg)": 53.0,
        "Latitude(deg)": -42.78565210849693,
        "Longitude(deg)": -179.39569089648708,
        "Mean Anomaly(deg)": -57.93252555731938,
        "RAAN(deg)": 324.9937747590703,
        "Satellite Name": "Starlink Shell 1 1448",
        "Satellite Number": 1448,
        "Semi-Major Axis(m)": 6931778.249405717,
        "Time(s)": 120
    },
    {
        "Altitude(m)": 567521.1599060212,
        "Argument of Periapsis(deg)": 0.004531520233646079,
        "Eccentricity": 0.0,
        "Inclination(deg)": 53.0,
        "Latitude(deg)": -42.42320820489008,
        "Longitude(deg)": -178.7459322630543,
        "Mean Anomaly(deg)": -57.30569435376268,
        "RAAN(deg)": 324.9932559889928,
        "Satellite Name": "Starlink Shell 1 1448",
        "Satellite Number": 1448,
        "Semi-Major Axis(m)": 6931778.249405717,
        "Time(s)": 130
    },
    {
        "Altitude(m)": 567369.6664058586,
        "Argument of Periapsis(deg)": 0.0048800987131573164,
        "Eccentricity": 0.0,
        "Inclination(deg)": 53.0,
        "Latitude(deg)": -42.05661606967035,
        "Longitude(deg)": -178.10411205433638,
        "Mean Anomaly(deg)": -56.678863150205984,
        "RAAN(deg)": 324.9927372189154,
        "Satellite Name": "Starlink Shell 1 1448",
        "Satellite Number": 1448,
        "Semi-Major Axis(m)": 6931778.249405717,
        "Time(s)": 140
    },
    {
        "Altitude(m)": 567216.4616525074,
        "Argument of Periapsis(deg)": 0.005228677192668553,
        "Eccentricity": 0.0,
        "Inclination(deg)": 53.0,
        "Latitude(deg)": -41.685973720967276,
        "Longitude(deg)": -177.47012557600655,
        "Mean Anomaly(deg)": -56.05203194664919,
        "RAAN(deg)": 324.9922184488379,
        "Satellite Name": "Starlink Shell 1 1448",
        "Satellite Number": 1448,
        "Semi-Major Axis(m)": 6931778.249405717,
        "Time(s)": 150
    },
    {
        "Altitude(m)": 567061.6055750626,
        "Argument of Periapsis(deg)": 0.00557725567217979,
        "Eccentricity": 0.0,
        "Inclination(deg)": 53.0,
        "Latitude(deg)": -41.31137735133281,
        "Longitude(deg)": -176.84386498600404,
        "Mean Anomaly(deg)": -55.4252007430925,
        "RAAN(deg)": 324.99169967876037,
        "Satellite Name": "Starlink Shell 1 1448",
        "Satellite Number": 1448,
        "Semi-Major Axis(m)": 6931778.249405717,
        "Time(s)": 160
    },
    {
        "Altitude(m)": 566905.1586922202,
        "Argument of Periapsis(deg)": 0.0059258341516910265,
        "Eccentricity": 0.0,
        "Inclination(deg)": 53.0,
        "Latitude(deg)": -40.93292132177822,
        "Longitude(deg)": -176.2252206224653,
        "Mean Anomaly(deg)": -54.7983695395358,
        "RAAN(deg)": 324.99118090868296,
        "Satellite Name": "Starlink Shell 1 1448",
        "Satellite Number": 1448,
        "Semi-Major Axis(m)": 6931778.249405717,
        "Time(s)": 170
    },
    {
        "Altitude(m)": 566747.1820855065,
        "Argument of Periapsis(deg)": 0.006274412631202263,
        "Eccentricity": 0.0,
        "Inclination(deg)": 53.0,
        "Latitude(deg)": -40.55069816018221,
        "Longitude(deg)": -175.61408080102893,
        "Mean Anomaly(deg)": -54.1715383359791,
        "RAAN(deg)": 324.9906621386055,
        "Satellite Name": "Starlink Shell 1 1448",
        "Satellite Number": 1448,
        "Semi-Major Axis(m)": 6931778.249405717,
        "Time(s)": 180
    }
]